IRIDIUM 154             
1 43574U 18061F   26170.74326814  .00000196  00000+0  62836-4 0  9994
2 43574  86.3959  55.7381 0002158  88.5104 271.6339 14.34217571413774
IRIDIUM 163             
1 43575U 18061G   26170.72424026  .00000068  00000+0  17071-4 0  9996
2 43575  86.3958  55.6614 0002237  83.2796 276.8654 14.34216861413744
IRIDIUM 156             
1 43576U 18061H   26170.69887511  .00000231  00000+0  75427-4 0  9996
2 43576  86.3959  55.6793 0002047  83.2033 276.9396 14.34216277413731
IRIDIUM 164             
1 43577U 18061J   26170.74961181  .00000042  00000+0  80786-5 0  9994
2 43577  86.3959  55.6984 0002172  89.5434 270.6011 14.34217288413780
IRIDIUM 159             
1 43578U 18061K   26170.71789917  .00000049  00000+0  10537-4 0  9990
2 43578  86.3959  55.6484 0002269  84.0899 276.0556 14.34217851413744
IRIDIUM 180             
1 43922U 19002A   26170.57785771  .00000095  00000+0  26851-4 0  9994
2 43922  86.3972 352.5979 0002260  89.4357 270.7097 14.34217576389331
IRIDIUM 176             
1 43923U 19002B   26170.26591116  .00000588  00000+0  89275-4 0  9995
2 43923  86.6091 352.6714 0002318  93.3865 266.7617 14.72269379399555
IRIDIUM 168             
1 43924U 19002C   26170.92035204  .00000175  00000+0  55288-4 0  9999
2 43924  86.3974 352.5320 0002204  89.8335 270.3113 14.34219988389360
IRIDIUM 173             
1 43925U 19002D   26170.55883046  .00000174  00000+0  55066-4 0  9997
2 43925  86.3968 352.5718 0002196  87.8162 272.3285 14.34217568389297
IRIDIUM 169             
1 43926U 19002E   26170.61713818  .00000204  00000+0  60029-4 0  9993
2 43926  86.4222  24.1773 0001783  74.6039 285.5356 14.38609952390577
IRIDIUM 172             
1 43927U 19002F   26170.48271500  .00000171  00000+0  54098-4 0  9998
2 43927  86.3970 352.6117 0002258  88.7729 271.3725 14.34219410389290
IRIDIUM 175             
1 43928U 19002G   26170.77117886  .00000260  00000+0  70680-4 0  9991
2 43928  86.4515 289.4407 0002847 171.5018 188.6231 14.43613927399353
IRIDIUM 171             
1 43929U 19002H   26170.60322822 -.00000017  00000+0 -13271-4 0  9997
2 43929  86.3975 352.8678 0001938  91.6573 268.4845 14.34217354389302
IRIDIUM 170             
1 43930U 19002J   26170.95175988  .00000579  00000+0  87911-4 0  9999
2 43930  86.6092 352.3869 0002357  89.9676 270.1811 14.72270586399665
IRIDIUM 167             
1 43931U 19002K   26170.59688519  .00000009  00000+0 -36741-5 0  9994
2 43931  86.3966 352.5865 0001793  93.6258 266.5143 14.34217521389307
IRIDIUM 181             
1 56726U 23068S   26170.74097015  .00000241  00000+0  65550-4 0  9995
2 56726  86.4498  55.7232 0002400  89.0162 271.1314 14.43307820162801
IRIDIUM 177             
1 56727U 23068T   26170.48583290  .00000855  00000+0  10907-3 0  9998
2 56727  86.1963 327.6993 0002363  88.5872 271.5619 14.80228685166708
IRIDIUM 174             
1 56728U 23068U   26169.98789103  .00000602  00000+0  91459-4 0  9995
2 56728  86.6098 352.9377 0002446  84.3279 275.8217 14.72265957166285
IRIDIUM 178             
1 56729U 23068V   26170.61016078  .00000710  00000+0  90018-4 0  9992
2 56729  86.6536  24.3475 0002613  85.4486 274.7034 14.80237130166725
IRIDIUM 179             
1 56730U 23068W   26170.67236796  .00000690  00000+0  87362-4 0  9996
2 56730  86.6773  33.3086 0002467  88.0063 272.1442 14.80234553166737
