OBJECT_NAME,OBJECT_ID,EPOCH,MEAN_MOTION,ECCENTRICITY,INCLINATION,RA_OF_ASC_NODE,ARG_OF_PERICENTER,MEAN_ANOMALY,EPHEMERIS_TYPE,CLASSIFICATION_TYPE,NORAD_CAT_ID,ELEMENT_SET_NO,REV_AT_EPOCH,BSTAR,MEAN_MOTION_DOT,MEAN_MOTION_DDOT
IRIDIUM 154,2018-061F,2026-06-19T17:50:18.367296,14.34217571,.00021589,86.3959,55.7381,88.5104,271.6339,0,U,43574,999,41377,.62835915E-4,.196E-5,0
IRIDIUM 163,2018-061G,2026-06-19T17:22:54.358464,14.34216861,.00022377,86.3958,55.6614,83.2796,276.8654,0,U,43575,999,41374,.17070543E-4,.68E-6,0
IRIDIUM 156,2018-061H,2026-06-19T16:46:22.809504,14.34216277,.00020472,86.3959,55.6793,83.2033,276.9396,0,U,43576,999,41373,.75426647E-4,.231E-5,0
IRIDIUM 164,2018-061J,2026-06-19T17:59:26.460384,14.34217288,.00021721,86.3959,55.6984,89.5434,270.6011,0,U,43577,999,41378,.8078618E-5,.42E-6,0
IRIDIUM 159,2018-061K,2026-06-19T17:13:46.488288,14.34217851,.00022697,86.3959,55.6484,84.0899,276.0556,0,U,43578,999,41374,.10536841E-4,.49E-6,0
IRIDIUM 180,2019-002A,2026-06-19T13:52:06.906144,14.34217576,.00022607,86.3972,352.5979,89.4357,270.7097,0,U,43922,999,38933,.26850975E-4,.95E-6,0
IRIDIUM 176,2019-002B,2026-06-19T06:22:54.724224,14.72269379,.00023182,86.6091,352.6714,93.3865,266.7617,0,U,43923,999,39955,.89274609E-4,.588E-5,0
IRIDIUM 168,2019-002C,2026-06-19T22:05:18.416256,14.34219988,.00022041,86.3974,352.5320,89.8335,270.3113,0,U,43924,999,38936,.55287907E-4,.175E-5,0
IRIDIUM 173,2019-002D,2026-06-19T13:24:42.951744,14.34217568,.00021968,86.3968,352.5718,87.8162,272.3285,0,U,43925,999,38929,.55065794E-4,.174E-5,0
IRIDIUM 169,2019-002E,2026-06-19T14:48:40.738752,14.38609952,.00017837,86.4222,24.1773,74.6039,285.5356,0,U,43926,999,39057,.6002882E-4,.204E-5,0
IRIDIUM 172,2019-002F,2026-06-19T11:35:06.576000,14.34219410,.00022586,86.3970,352.6117,88.7729,271.3725,0,U,43927,999,38929,.54098023E-4,.171E-5,0
IRIDIUM 175,2019-002G,2026-06-19T18:30:29.853504,14.43613927,.00028478,86.4515,289.4407,171.5018,188.6231,0,U,43928,999,39935,.70680369E-4,.26E-5,0
IRIDIUM 171,2019-002H,2026-06-19T14:28:38.918208,14.34217354,.0001938,86.3975,352.8678,91.6573,268.4845,0,U,43929,999,38930,-.1327086E-4,-.17E-6,0
IRIDIUM 170,2019-002J,2026-06-19T22:50:32.053632,14.72270586,.00023574,86.6092,352.3869,89.9676,270.1811,0,U,43930,999,39966,.87910845E-4,.579E-5,0
IRIDIUM 167,2019-002K,2026-06-19T14:19:30.880416,14.34217521,.0001793,86.3966,352.5865,93.6258,266.5143,0,U,43931,999,38930,-.3674083E-5,.9E-7,0
IRIDIUM 181,2023-068S,2026-06-19T17:46:59.820960,14.43307820,.00024008,86.4498,55.7232,89.0162,271.1314,0,U,56726,999,16280,.65550293E-4,.241E-5,0
IRIDIUM 177,2023-068T,2026-06-19T11:39:35.962560,14.80228685,.00023633,86.1963,327.6993,88.5872,271.5619,0,U,56727,999,16670,.1090733E-3,.855E-5,0
IRIDIUM 174,2023-068U,2026-06-18T23:42:33.784992,14.72265957,.00024465,86.6098,352.9377,84.3279,275.8217,0,U,56728,999,16628,.91459462E-4,.602E-5,0
IRIDIUM 178,2023-068V,2026-06-19T14:38:37.891392,14.80237130,.00026139,86.6536,24.3475,85.4486,274.7034,0,U,56729,999,16672,.90018302E-4,.71E-5,0
IRIDIUM 179,2023-068W,2026-06-19T16:08:12.591744,14.80234553,.00024671,86.6773,33.3086,88.0063,272.1442,0,U,56730,999,16673,.87362359E-4,.69E-5,0
